{
  "type": "FeatureCollection",
  "features": [
    {
      "type": "Feature",
      "properties": {
        "norad_id": 30998,
        "name": "FENGYUN 1C DEB",
        "group": "fengyun-1c-debris",
        "lat": 56.270532476272926,
        "lon": 51.40400907568517,
        "alt_km": 735.4910197429317,
        "timestamp": "2025-12-07T14:37:05.484520+00:00",
        "meta_object_name": "FENGYUN 1C DEB",
        "meta_object_id": "1999-025BCQ",
        "meta_epoch": "2025-12-06T22:03:40.624416",
        "meta_mean_motion": 14.47737996,
        "meta_eccentricity": 0.00127764,
        "meta_inclination": 98.8297,
        "meta_ra_of_asc_node": 64.1469,
        "meta_arg_of_pericenter": 210.1575,
        "meta_mean_anomaly": 213.8254,
        "meta_ephemeris_type": 0,
        "meta_classification_type": "U",
        "meta_norad_cat_id": 30998,
        "meta_element_set_no": 999,
        "meta_rev_at_epoch": 97106,
        "meta_bstar": 0.0039761525,
        "meta_mean_motion_dot": 0.00014683,
        "meta_mean_motion_ddot": 0,
        "tle_line1": "1 30998U 99025BCQ 25340.91922019  .00014683  00000+0  39762-2 0  9991",
        "tle_line2": "2 30998  98.8297  64.1469 0012776 210.1575 213.8254 14.47737996971063"
      },
      "geometry": {
        "type": "Point",
        "coordinates": [
          51.40400907568517,
          56.270532476272926
        ]
      }
    },
    {
      "type": "Feature",
      "properties": {
        "norad_id": 30999,
        "name": "FENGYUN 1C DEB",
        "group": "fengyun-1c-debris",
        "lat": -22.930437543864837,
        "lon": 158.74466423264147,
        "alt_km": 626.8986306076367,
        "timestamp": "2025-12-07T14:37:05.484530+00:00",
        "meta_object_name": "FENGYUN 1C DEB",
        "meta_object_id": "1999-025BCR",
        "meta_epoch": "2025-12-06T05:47:24.481248",
        "meta_mean_motion": 14.583648,
        "meta_eccentricity": 0.01133387,
        "meta_inclination": 99.0904,
        "meta_ra_of_asc_node": 153.3661,
        "meta_arg_of_pericenter": 357.6849,
        "meta_mean_anomaly": 2.3808,
        "meta_ephemeris_type": 0,
        "meta_classification_type": "U",
        "meta_norad_cat_id": 30999,
        "meta_element_set_no": 999,
        "meta_rev_at_epoch": 98736,
        "meta_bstar": 0.0009679349,
        "meta_mean_motion_dot": 4.84e-05,
        "meta_mean_motion_ddot": 0,
        "tle_line1": "1 30999U 99025BCR 25340.24125557  .00004840  00000+0  96793-3 0  9992",
        "tle_line2": "2 30999  99.0904 153.3661 0113338 357.6849   2.3808 14.58364800987362"
      },
      "geometry": {
        "type": "Point",
        "coordinates": [
          158.74466423264147,
          -22.930437543864837
        ]
      }
    },
    {
      "type": "Feature",
      "properties": {
        "norad_id": 31000,
        "name": "FENGYUN 1C DEB",
        "group": "fengyun-1c-debris",
        "lat": 20.38291488059393,
        "lon": -166.09764367134247,
        "alt_km": 834.173131951884,
        "timestamp": "2025-12-07T14:37:05.484540+00:00",
        "meta_object_name": "FENGYUN 1C DEB",
        "meta_object_id": "1999-025BCS",
        "meta_epoch": "2025-12-04T21:42:51.154272",
        "meta_mean_motion": 14.09617577,
        "meta_eccentricity": 0.0165715,
        "meta_inclination": 97.5669,
        "meta_ra_of_asc_node": 8.7953,
        "meta_arg_of_pericenter": 89.0211,
        "meta_mean_anomaly": 32.828,
        "meta_ephemeris_type": 0,
        "meta_classification_type": "U",
        "meta_norad_cat_id": 31000,
        "meta_element_set_no": 999,
        "meta_rev_at_epoch": 69846,
        "meta_bstar": 0.0010417,
        "meta_mean_motion_dot": 2.041e-05,
        "meta_mean_motion_ddot": 0,
        "tle_line1": "1 31000U 99025BCS 25338.90475873  .00002041  00000+0  10417-2 0  9994",
        "tle_line2": "2 31000  97.5669   8.7953 0165715  89.0211  32.8280 14.09617577698469"
      },
      "geometry": {
        "type": "Point",
        "coordinates": [
          -166.09764367134247,
          20.38291488059393
        ]
      }
    },
    {
      "type": "Feature",
      "properties": {
        "norad_id": 31001,
        "name": "FENGYUN 1C DEB",
        "group": "fengyun-1c-debris",
        "lat": 29.713872270087954,
        "lon": -151.3057950696579,
        "alt_km": 823.7154416052281,
        "timestamp": "2025-12-07T14:37:05.484551+00:00",
        "meta_object_name": "FENGYUN 1C DEB",
        "meta_object_id": "1999-025BCT",
        "meta_epoch": "2025-12-06T10:10:52.401504",
        "meta_mean_motion": 14.42834365,
        "meta_eccentricity": 0.01465743,
        "meta_inclination": 99.2727,
        "meta_ra_of_asc_node": 212.7559,
        "meta_arg_of_pericenter": 171.0705,
        "meta_mean_anomaly": 189.3143,
        "meta_ephemeris_type": 0,
        "meta_classification_type": "U",
        "meta_norad_cat_id": 31001,
        "meta_element_set_no": 999,
        "meta_rev_at_epoch": 98115,
        "meta_bstar": 0.00082052572,
        "meta_mean_motion_dot": 3.061e-05,
        "meta_mean_motion_ddot": 0,
        "tle_line1": "1 31001U 99025BCT 25340.42421761  .00003061  00000+0  82053-3 0  9991",
        "tle_line2": "2 31001  99.2727 212.7559 0146574 171.0705 189.3143 14.42834365981155"
      },
      "geometry": {
        "type": "Point",
        "coordinates": [
          -151.3057950696579,
          29.713872270087954
        ]
      }
    },
    {
      "type": "Feature",
      "properties": {
        "norad_id": 31002,
        "name": "FENGYUN 1C DEB",
        "group": "fengyun-1c-debris",
        "lat": 19.115769770036483,
        "lon": 176.82974095317147,
        "alt_km": 963.9088336313944,
        "timestamp": "2025-12-07T14:37:05.484561+00:00",
        "meta_object_name": "FENGYUN 1C DEB",
        "meta_object_id": "1999-025BCU",
        "meta_epoch": "2025-12-06T07:00:57.737088",
        "meta_mean_motion": 13.9919529,
        "meta_eccentricity": 0.00993182,
        "meta_inclination": 98.8863,
        "meta_ra_of_asc_node": 352.4441,
        "meta_arg_of_pericenter": 5.4949,
        "meta_mean_anomaly": 5.6296,
        "meta_ephemeris_type": 0,
        "meta_classification_type": "U",
        "meta_norad_cat_id": 31002,
        "meta_element_set_no": 999,
        "meta_rev_at_epoch": 95515,
        "meta_bstar": 0.00047255564,
        "meta_mean_motion_dot": 6.72e-06,
        "meta_mean_motion_ddot": 0,
        "tle_line1": "1 31002U 99025BCU 25340.29233492  .00000672  00000+0  47256-3 0  9990",
        "tle_line2": "2 31002  98.8863 352.4441 0099318   5.4949   5.6296 13.99195290955155"
      },
      "geometry": {
        "type": "Point",
        "coordinates": [
          176.82974095317147,
          19.115769770036483
        ]
      }
    },
    {
      "type": "Feature",
      "properties": {
        "norad_id": 31003,
        "name": "FENGYUN 1C DEB",
        "group": "fengyun-1c-debris",
        "lat": 44.71342863663308,
        "lon": 49.49958180708654,
        "alt_km": 835.596317277169,
        "timestamp": "2025-12-07T14:37:05.484572+00:00",
        "meta_object_name": "FENGYUN 1C DEB",
        "meta_object_id": "1999-025BCV",
        "meta_epoch": "2025-12-06T18:10:37.968960",
        "meta_mean_motion": 14.24638494,
        "meta_eccentricity": 0.0041504,
        "meta_inclination": 98.844,
        "meta_ra_of_asc_node": 57.5093,
        "meta_arg_of_pericenter": 231.4177,
        "meta_mean_anomaly": 128.3281,
        "meta_ephemeris_type": 0,
        "meta_classification_type": "U",
        "meta_norad_cat_id": 31003,
        "meta_element_set_no": 999,
        "meta_rev_at_epoch": 96424,
        "meta_bstar": 0.0024029515,
        "meta_mean_motion_dot": 5.594e-05,
        "meta_mean_motion_ddot": 0,
        "tle_line1": "1 31003U 99025BCV 25340.75738390  .00005594  00000+0  24030-2 0  9991",
        "tle_line2": "2 31003  98.8440  57.5093 0041504 231.4177 128.3281 14.24638494964245"
      },
      "geometry": {
        "type": "Point",
        "coordinates": [
          49.49958180708654,
          44.71342863663308
        ]
      }
    },
    {
      "type": "Feature",
      "properties": {
        "norad_id": 31005,
        "name": "FENGYUN 1C DEB",
        "group": "fengyun-1c-debris",
        "lat": 16.505541007834832,
        "lon": 113.21316952383663,
        "alt_km": 846.7435421202372,
        "timestamp": "2025-12-07T14:37:05.484581+00:00",
        "meta_object_name": "FENGYUN 1C DEB",
        "meta_object_id": "1999-025BCX",
        "meta_epoch": "2025-12-06T09:07:54.895872",
        "meta_mean_motion": 13.83255051,
        "meta_eccentricity": 0.01803523,
        "meta_inclination": 98.6135,
        "meta_ra_of_asc_node": 114.6618,
        "meta_arg_of_pericenter": 342.8887,
        "meta_mean_anomaly": 37.9549,
        "meta_ephemeris_type": 0,
        "meta_classification_type": "U",
        "meta_norad_cat_id": 31005,
        "meta_element_set_no": 999,
        "meta_rev_at_epoch": 94193,
        "meta_bstar": 0.001699903,
        "meta_mean_motion_dot": 2.075e-05,
        "meta_mean_motion_ddot": 0,
        "tle_line1": "1 31005U 99025BCX 25340.38049648  .00002075  00000+0  16999-2 0  9999",
        "tle_line2": "2 31005  98.6135 114.6618 0180352 342.8887  37.9549 13.83255051941935"
      },
      "geometry": {
        "type": "Point",
        "coordinates": [
          113.21316952383663,
          16.505541007834832
        ]
      }
    }
  ]
}